{"type": "FeatureCollection", "features": [{"type": "Feature", "properties": {"route_id": "route-20260720-turi", "name": "Caminata Mirador de Turi", "source_format": "FIT"}, "geometry": {"type": "LineString", "coordinates": [[-79.010161, -2.92228, 2638.6], [-79.010191, -2.92223, 2641.2], [-79.010195, -2.92219, 2627.8], [-79.010269, -2.922235, 2606.2], [-79.010296, -2.922276, 2607.6], [-79.010276, -2.922266, 2606.2], [-79.010222, -2.922279, 2604.6], [-79.010172, -2.922268, 2604.2], [-79.010164, -2.922263, 2604.2], [-79.010139, -2.922271, 2605.4], [-79.010127, -2.922267, 2605.6], [-79.01006, -2.922255, 2606.4], [-79.010035, -2.922266, 2607.8], [-79.010028, -2.922272, 2608.0], [-79.009992, -2.922261, 2608.8], [-79.009981, -2.922258, 2608.8], [-79.00991, -2.922274, 2610.4], [-79.009879, -2.922275, 2612.8], [-79.009868, -2.922276, 2614.0], [-79.009831, -2.922296, 2617.0], [-79.009782, -2.922314, 2625.2], [-79.009773, -2.922303, 2626.2], [-79.009737, -2.922252, 2630.2], [-79.009716, -2.922242, 2631.2], [-79.009687, -2.922234, 2631.8], [-79.009649, -2.922163, 2632.6], [-79.009638, -2.922113, 2633.4], [-79.009584, -2.921965, 2634.0], [-79.009578, -2.921952, 2634.0], [-79.009565, -2.921931, 2634.6], [-79.009531, -2.921912, 2634.8], [-79.009508, -2.921886, 2634.6], [-79.009482, -2.921799, 2634.0], [-79.009468, -2.921752, 2634.6], [-79.00943, -2.92163, 2637.4], [-79.009419, -2.921614, 2638.0], [-79.009399, -2.921578, 2638.6], [-79.00937, -2.921491, 2637.4], [-79.009293, -2.921416, 2633.0], [-79.009276, -2.921366, 2632.8], [-79.009253, -2.921313, 2632.8], [-79.009227, -2.921286, 2632.2], [-79.009212, -2.921257, 2631.8], [-79.009204, -2.921222, 2632.8], [-79.009179, -2.921111, 2634.8], [-79.009158, -2.921031, 2632.4], [-79.009154, -2.92102, 2632.2], [-79.009128, -2.920968, 2632.0], [-79.009108, -2.920895, 2631.2], [-79.009066, -2.92083, 2629.2], [-79.00901, -2.920702, 2631.4], [-79.008926, -2.920562, 2634.2], [-79.008827, -2.920407, 2638.0], [-79.008823, -2.920394, 2638.6], [-79.008781, -2.920348, 2641.4], [-79.008774, -2.920335, 2641.6], [-79.008707, -2.920252, 2642.8], [-79.008635, -2.920221, 2642.2], [-79.008584, -2.920186, 2644.6], [-79.008554, -2.920148, 2647.4], [-79.008523, -2.920129, 2648.6], [-79.008463, -2.92006, 2651.6], [-79.008398, -2.919873, 2655.8], [-79.008384, -2.919834, 2655.0], [-79.008333, -2.919727, 2652.0], [-79.008299, -2.919642, 2650.4], [-79.008279, -2.919613, 2650.0], [-79.008262, -2.919532, 2645.8], [-79.008223, -2.919526, 2644.0], [-79.008208, -2.919496, 2643.6], [-79.008171, -2.919408, 2643.4], [-79.008152, -2.919389, 2643.4], [-79.008102, -2.9193, 2643.4], [-79.008094, -2.919286, 2643.4], [-79.008067, -2.919237, 2644.6], [-79.008029, -2.919077, 2646.6], [-79.007969, -2.918895, 2644.0], [-79.007901, -2.918724, 2644.0], [-79.007897, -2.918703, 2644.2], [-79.007829, -2.918494, 2645.8], [-79.007767, -2.918299, 2646.4], [-79.007748, -2.918267, 2646.4], [-79.007712, -2.918226, 2647.8], [-79.007708, -2.918229, 2648.2], [-79.007665, -2.918212, 2651.0], [-79.007635, -2.918146, 2652.2], [-79.007624, -2.918163, 2652.4], [-79.007617, -2.918169, 2652.6], [-79.007593, -2.918158, 2652.8], [-79.007577, -2.918153, 2653.2], [-79.007572, -2.918163, 2653.6], [-79.007561, -2.918172, 2654.6], [-79.007558, -2.918157, 2655.0], [-79.00753, -2.918092, 2656.8], [-79.007483, -2.917994, 2659.8], [-79.007477, -2.917977, 2660.0], [-79.007459, -2.917965, 2660.2], [-79.007403, -2.917906, 2661.0], [-79.007358, -2.917868, 2663.2], [-79.007286, -2.917799, 2665.6], [-79.007193, -2.917715, 2669.0], [-79.007088, -2.917563, 2675.6], [-79.007038, -2.917464, 2677.8], [-79.007019, -2.917459, 2678.2], [-79.006995, -2.917456, 2678.6], [-79.006954, -2.917394, 2679.6], [-79.006883, -2.917297, 2683.4], [-79.00677, -2.917178, 2688.6], [-79.00672, -2.917127, 2690.0], [-79.006639, -2.917025, 2692.6], [-79.006567, -2.916962, 2697.0], [-79.006545, -2.916932, 2698.2], [-79.006532, -2.916873, 2694.8], [-79.006524, -2.916788, 2678.4], [-79.006555, -2.916645, 2653.0], [-79.006612, -2.916577, 2639.8], [-79.006652, -2.916549, 2633.6], [-79.006705, -2.916557, 2630.6], [-79.006741, -2.916581, 2629.4], [-79.00677, -2.916575, 2627.6], [-79.006834, -2.916556, 2624.6], [-79.006876, -2.916525, 2623.2], [-79.006907, -2.916486, 2622.0], [-79.00694, -2.916447, 2620.0], [-79.006973, -2.916396, 2618.4], [-79.007022, -2.916296, 2615.4], [-79.007037, -2.91629, 2615.0], [-79.007081, -2.916277, 2614.8], [-79.00712, -2.916267, 2615.6], [-79.007146, -2.916269, 2616.0], [-79.007156, -2.916259, 2616.2], [-79.007212, -2.916221, 2616.4], [-79.007327, -2.916137, 2615.6], [-79.007431, -2.91604, 2608.6], [-79.007451, -2.916041, 2608.4], [-79.007528, -2.91602, 2608.2], [-79.007596, -2.915994, 2609.2], [-79.007612, -2.915989, 2609.2], [-79.007734, -2.91595, 2608.4], [-79.007786, -2.915939, 2606.4], [-79.007825, -2.915912, 2603.4], [-79.007956, -2.915848, 2600.2], [-79.008073, -2.915804, 2597.2], [-79.008133, -2.915765, 2596.8], [-79.00819, -2.915715, 2596.4], [-79.008264, -2.915659, 2594.0], [-79.008286, -2.91565, 2593.8], [-79.008341, -2.915596, 2593.4], [-79.008348, -2.915591, 2593.0], [-79.008355, -2.915582, 2592.8], [-79.00836, -2.915582, 2592.8], [-79.008366, -2.915566, 2593.4], [-79.008361, -2.915555, 2593.6], [-79.00836, -2.915555, 2593.6], [-79.008359, -2.915554, 2594.2], [-79.008358, -2.915555, 2594.4], [-79.008361, -2.915557, 2595.0], [-79.008361, -2.91556, 2595.4], [-79.00836, -2.915572, 2595.8], [-79.00836, -2.915577, 2596.0], [-79.00836, -2.915579, 2596.2], [-79.008361, -2.915581, 2596.4], [-79.008362, -2.915585, 2596.4], [-79.008363, -2.915578, 2596.0], [-79.008363, -2.915576, 2597.0], [-79.008362, -2.915536, 2597.0], [-79.008362, -2.915531, 2597.0], [-79.008362, -2.915528, 2597.0], [-79.008361, -2.915527, 2597.0], [-79.008364, -2.915526, 2596.8], [-79.008411, -2.915491, 2596.6], [-79.008539, -2.915426, 2596.0], [-79.008553, -2.915416, 2596.0], [-79.008541, -2.915379, 2595.4], [-79.008504, -2.915327, 2594.2], [-79.008516, -2.915314, 2594.0], [-79.008535, -2.915308, 2594.0], [-79.008588, -2.915275, 2594.4], [-79.008651, -2.915236, 2595.2], [-79.008747, -2.915188, 2596.6], [-79.008816, -2.915164, 2597.8], [-79.008835, -2.915166, 2598.0], [-79.008902, -2.91514, 2598.2], [-79.008967, -2.915119, 2598.4], [-79.009028, -2.915071, 2598.4], [-79.009078, -2.915034, 2598.2], [-79.00916, -2.914986, 2597.8], [-79.009254, -2.914936, 2596.8], [-79.009265, -2.914936, 2596.6], [-79.009296, -2.914926, 2596.4], [-79.009333, -2.914908, 2596.2], [-79.009378, -2.914882, 2598.0], [-79.009391, -2.914872, 2598.6], [-79.009476, -2.914837, 2600.6], [-79.009501, -2.914834, 2600.6], [-79.009558, -2.914796, 2600.2], [-79.009595, -2.914764, 2599.8], [-79.009608, -2.914758, 2599.6], [-79.009645, -2.914736, 2598.8], [-79.009715, -2.914701, 2598.0], [-79.009867, -2.914608, 2596.2], [-79.009979, -2.91456, 2596.6], [-79.009992, -2.914552, 2596.6], [-79.010084, -2.914512, 2594.2], [-79.010185, -2.914472, 2587.8], [-79.010212, -2.914468, 2586.8], [-79.010232, -2.914464, 2586.2], [-79.01024, -2.914462, 2585.8], [-79.010325, -2.914405, 2586.0], [-79.010421, -2.914348, 2587.6], [-79.010536, -2.914294, 2586.0], [-79.010575, -2.914263, 2584.8], [-79.010709, -2.914181, 2584.6], [-79.010718, -2.914177, 2584.8], [-79.010743, -2.914162, 2585.0], [-79.01075, -2.914153, 2585.2], [-79.01075, -2.914153, 2586.0], [-79.01075, -2.914153, 2586.0], [-79.01075, -2.914153, 2586.2], [-79.010754, -2.914151, 2586.2], [-79.010807, -2.914116, 2586.2], [-79.010911, -2.914037, 2584.4], [-79.010988, -2.914009, 2583.0], [-79.011031, -2.913999, 2582.8], [-79.011042, -2.913994, 2582.8], [-79.011101, -2.913951, 2583.2], [-79.011165, -2.91392, 2584.0], [-79.01133, -2.913834, 2584.4], [-79.011343, -2.913828, 2584.4], [-79.011367, -2.913812, 2584.4], [-79.011468, -2.913775, 2584.0], [-79.011486, -2.913767, 2584.0], [-79.011511, -2.913752, 2583.8], [-79.011532, -2.913746, 2584.0], [-79.011603, -2.913725, 2587.6], [-79.011693, -2.913696, 2586.2], [-79.011786, -2.913628, 2584.4], [-79.011909, -2.913565, 2585.6], [-79.011995, -2.913539, 2588.6], [-79.012113, -2.913513, 2593.8], [-79.012182, -2.913465, 2594.0], [-79.012249, -2.913394, 2592.4], [-79.012334, -2.913297, 2588.0], [-79.012486, -2.91322, 2587.8], [-79.012572, -2.913188, 2591.4], [-79.012667, -2.913118, 2592.8], [-79.012816, -2.913047, 2585.8], [-79.012925, -2.913001, 2583.0], [-79.012936, -2.912995, 2581.4], [-79.012988, -2.91297, 2580.4], [-79.012996, -2.912963, 2579.6], [-79.012991, -2.91296, 2579.6], [-79.012979, -2.912944, 2579.6], [-79.012933, -2.912877, 2579.6], [-79.012935, -2.912853, 2579.8], [-79.012964, -2.912823, 2578.8], [-79.012985, -2.912816, 2578.6], [-79.013021, -2.912796, 2578.4], [-79.013106, -2.912797, 2577.6], [-79.013119, -2.912809, 2577.4], [-79.01321, -2.912844, 2577.2], [-79.013261, -2.912829, 2578.0], [-79.013312, -2.912802, 2578.6], [-79.013455, -2.912731, 2577.8], [-79.013545, -2.912677, 2576.0], [-79.013572, -2.912657, 2575.4], [-79.013726, -2.912592, 2574.8], [-79.01379, -2.91257, 2578.0], [-79.013819, -2.91256, 2579.6], [-79.013915, -2.912512, 2582.4], [-79.014083, -2.912424, 2582.4], [-79.014122, -2.9124, 2582.6], [-79.014206, -2.912346, 2582.6], [-79.014248, -2.912337, 2583.2], [-79.014373, -2.912285, 2585.2], [-79.01449, -2.912236, 2586.4], [-79.014655, -2.91214, 2587.2], [-79.014745, -2.912073, 2585.4], [-79.014763, -2.912067, 2584.8], [-79.014899, -2.911994, 2579.6], [-79.015066, -2.911896, 2577.8], [-79.015079, -2.911889, 2577.6], [-79.015113, -2.911872, 2577.0], [-79.015115, -2.911868, 2576.6], [-79.015115, -2.911868, 2576.6], [-79.015115, -2.911868, 2576.6], [-79.015132, -2.911861, 2576.8], [-79.015162, -2.911844, 2577.0], [-79.015178, -2.911835, 2577.0], [-79.015232, -2.911797, 2577.6], [-79.015326, -2.911743, 2578.2], [-79.015458, -2.911675, 2581.6], [-79.015585, -2.911645, 2583.8], [-79.015616, -2.911632, 2583.8], [-79.015716, -2.911585, 2585.6], [-79.015826, -2.911539, 2588.0], [-79.015907, -2.911513, 2591.0], [-79.016035, -2.911432, 2592.6], [-79.016174, -2.911352, 2590.4], [-79.016186, -2.911344, 2590.0], [-79.016284, -2.911296, 2590.4], [-79.016409, -2.911237, 2592.2], [-79.01654, -2.911159, 2586.6], [-79.016689, -2.911048, 2580.8], [-79.016793, -2.911001, 2579.0], [-79.016862, -2.910978, 2578.8], [-79.016921, -2.910965, 2579.2], [-79.016978, -2.910945, 2579.4], [-79.016988, -2.910955, 2579.6], [-79.017016, -2.910962, 2579.8], [-79.017041, -2.910973, 2580.0], [-79.01713, -2.910977, 2580.2], [-79.017142, -2.910972, 2580.0], [-79.017234, -2.910904, 2579.4], [-79.017317, -2.910868, 2578.2], [-79.017329, -2.910863, 2578.2], [-79.017405, -2.91083, 2577.8], [-79.017408, -2.910829, 2577.8], [-79.017465, -2.910801, 2577.2], [-79.017574, -2.910726, 2575.8], [-79.017731, -2.910655, 2573.6], [-79.017745, -2.91065, 2573.6], [-79.017919, -2.910575, 2573.2], [-79.018068, -2.910516, 2572.2], [-79.018116, -2.910507, 2572.2], [-79.018226, -2.910474, 2572.4], [-79.018373, -2.910422, 2573.0], [-79.018551, -2.910391, 2573.0], [-79.01858, -2.910386, 2572.8], [-79.018595, -2.910371, 2572.8], [-79.018637, -2.910354, 2572.4], [-79.018744, -2.910349, 2571.8], [-79.018781, -2.910342, 2572.2], [-79.018804, -2.910342, 2572.2], [-79.01883, -2.910348, 2572.8], [-79.018874, -2.910338, 2573.2], [-79.018974, -2.910363, 2572.6], [-79.019001, -2.91038, 2572.8], [-79.019046, -2.910394, 2573.6], [-79.019132, -2.910451, 2575.8], [-79.019253, -2.910499, 2577.4], [-79.019324, -2.910552, 2582.4], [-79.019319, -2.910551, 2582.8], [-79.019266, -2.910543, 2583.2], [-79.019221, -2.910526, 2582.2], [-79.019194, -2.91052, 2581.6], [-79.019195, -2.910534, 2580.8], [-79.019294, -2.910582, 2580.0], [-79.019309, -2.910584, 2580.6], [-79.01941, -2.910605, 2584.4], [-79.019477, -2.910617, 2585.4], [-79.019654, -2.910615, 2584.6], [-79.019695, -2.910582, 2584.2], [-79.019726, -2.910551, 2584.2], [-79.019766, -2.910529, 2584.0], [-79.019831, -2.910495, 2584.0], [-79.019899, -2.910442, 2583.8], [-79.01991, -2.910436, 2583.4], [-79.020049, -2.910357, 2581.6], [-79.020127, -2.910309, 2580.4], [-79.020206, -2.910261, 2578.4], [-79.020273, -2.910235, 2577.0], [-79.020298, -2.910242, 2576.6], [-79.020308, -2.91025, 2576.6], [-79.020325, -2.910291, 2576.2], [-79.020334, -2.910338, 2575.4], [-79.02034, -2.910351, 2575.2], [-79.020349, -2.910355, 2574.8], [-79.020357, -2.910335, 2574.0], [-79.020357, -2.910304, 2573.6], [-79.020355, -2.910273, 2573.4], [-79.020322, -2.910162, 2573.8], [-79.020295, -2.91008, 2573.2], [-79.020273, -2.910055, 2572.8], [-79.020174, -2.910034, 2571.0], [-79.020047, -2.910046, 2569.4], [-79.02002, -2.910036, 2569.6], [-79.019982, -2.909991, 2570.2], [-79.019955, -2.909953, 2570.6], [-79.019877, -2.909813, 2571.8], [-79.01975, -2.909682, 2571.8], [-79.019612, -2.909621, 2572.6], [-79.019511, -2.909615, 2573.0], [-79.019346, -2.909617, 2572.6], [-79.019239, -2.909589, 2571.0], [-79.019195, -2.90953, 2569.8], [-79.019194, -2.909511, 2569.6], [-79.019227, -2.909409, 2569.8], [-79.019227, -2.909375, 2570.4], [-79.019183, -2.909318, 2570.8], [-79.019181, -2.90931, 2570.8], [-79.019214, -2.90934, 2572.2], [-79.019227, -2.909352, 2572.2], [-79.019207, -2.909381, 2572.6], [-79.019204, -2.90936, 2572.6], [-79.019204, -2.909355, 2572.6], [-79.019195, -2.909382, 2572.6], [-79.019158, -2.909324, 2573.0]]}}]}