{"type": "FeatureCollection", "features": [{"type": "Feature", "properties": {"name": "Caminata al Mirador de Turi", "route_id": "route-20260818-turi", "jornada_id": "jor-20260818-turi", "synthetic_test": true}, "geometry": {"type": "LineString", "coordinates": [[-79.0101607, -2.9222798, 2638.6], [-79.0101906, -2.9222301, 2641.2], [-79.0101953, -2.9221902, 2627.8], [-79.0102687, -2.9222345, 2606.2], [-79.0102956, -2.9222761, 2607.6], [-79.0102759, -2.9222663, 2606.2], [-79.0102222, -2.9222793, 2604.6], [-79.0101723, -2.9222676, 2604.2], [-79.0101643, -2.9222634, 2604.2], [-79.0101395, -2.9222707, 2605.4], [-79.010127, -2.9222671, 2605.6], [-79.0100604, -2.9222553, 2606.4], [-79.0100351, -2.9222663, 2607.8], [-79.0100278, -2.9222719, 2608.0], [-79.0099918, -2.9222609, 2608.8], [-79.0099814, -2.9222579, 2608.8], [-79.0099103, -2.9222741, 2610.4], [-79.0098789, -2.9222752, 2612.8], [-79.0098677, -2.922276, 2614.0], [-79.0098307, -2.9222958, 2617.0], [-79.0097817, -2.922314, 2625.2], [-79.0097735, -2.9223029, 2626.2], [-79.0097373, -2.9222517, 2630.2], [-79.0097161, -2.9222418, 2631.2], [-79.0096867, -2.9222343, 2631.8], [-79.0096486, -2.9221629, 2632.6], [-79.0096379, -2.9221133, 2633.4], [-79.0095841, -2.921965, 2634.0], [-79.0095782, -2.921952, 2634.0], [-79.0095649, -2.9219309, 2634.6], [-79.0095313, -2.9219121, 2634.8], [-79.0095082, -2.921886, 2634.6], [-79.0094824, -2.9217991, 2634.0], [-79.0094678, -2.9217523, 2634.6], [-79.0094302, -2.9216299, 2637.4], [-79.0094189, -2.9216135, 2638.0], [-79.0093986, -2.921578, 2638.6], [-79.0093696, -2.921491, 2637.4], [-79.009293, -2.9214158, 2633.0], [-79.0092764, -2.921366, 2632.8], [-79.0092529, -2.9213134, 2632.8], [-79.0092275, -2.9212865, 2632.2], [-79.0092115, -2.9212565, 2631.8], [-79.0092038, -2.9212219, 2632.8], [-79.0091788, -2.9211111, 2634.8], [-79.0091581, -2.9210315, 2632.4], [-79.0091535, -2.9210197, 2632.2], [-79.0091281, -2.9209682, 2632.0], [-79.0091077, -2.9208947, 2631.2], [-79.0090663, -2.9208301, 2629.2], [-79.0090099, -2.9207022, 2631.4], [-79.008926, -2.9205618, 2634.2], [-79.0088268, -2.9204073, 2638.0], [-79.0088234, -2.9203943, 2638.6], [-79.0087815, -2.9203483, 2641.4], [-79.0087737, -2.9203354, 2641.6], [-79.008707, -2.9202523, 2642.8], [-79.008635, -2.9202207, 2642.2], [-79.0085839, -2.9201858, 2644.6], [-79.0085544, -2.9201478, 2647.4], [-79.0085232, -2.9201287, 2648.6], [-79.0084632, -2.9200603, 2651.6], [-79.0083982, -2.9198733, 2655.8], [-79.0083837, -2.9198343, 2655.0], [-79.0083332, -2.9197269, 2652.0], [-79.0082994, -2.9196416, 2650.4], [-79.0082788, -2.9196129, 2650.0], [-79.0082619, -2.9195322, 2645.8], [-79.0082233, -2.9195258, 2644.0], [-79.0082084, -2.9194961, 2643.6], [-79.0081709, -2.9194077, 2643.4], [-79.0081519, -2.9193889, 2643.4], [-79.008102, -2.9193003, 2643.4], [-79.0080943, -2.9192861, 2643.4], [-79.0080675, -2.9192368, 2644.6], [-79.0080294, -2.9190772, 2646.6], [-79.0079686, -2.9188954, 2644.0], [-79.0079009, -2.9187243, 2644.0], [-79.0078968, -2.9187032, 2644.2], [-79.0078289, -2.918494, 2645.8], [-79.0077672, -2.9182991, 2646.4], [-79.007748, -2.9182673, 2646.4], [-79.007712, -2.918226, 2647.8], [-79.0077077, -2.9182292, 2648.2], [-79.0076655, -2.9182116, 2651.0], [-79.007635, -2.9181456, 2652.2], [-79.0076241, -2.9181633, 2652.4], [-79.0076174, -2.9181686, 2652.6], [-79.007593, -2.9181577, 2652.8], [-79.0075769, -2.9181531, 2653.2], [-79.0075724, -2.9181633, 2653.6], [-79.0075614, -2.9181717, 2654.6], [-79.0075582, -2.9181575, 2655.0], [-79.0075297, -2.9180922, 2656.8], [-79.0074827, -2.917994, 2659.8], [-79.0074766, -2.9179769, 2660.0], [-79.0074592, -2.917965, 2660.2], [-79.0074026, -2.9179062, 2661.0], [-79.0073577, -2.9178678, 2663.2], [-79.0072863, -2.9177989, 2665.6], [-79.0071928, -2.9177147, 2669.0], [-79.007088, -2.9175635, 2675.6], [-79.0070382, -2.9174639, 2677.8], [-79.0070189, -2.9174589, 2678.2], [-79.0069951, -2.9174557, 2678.6], [-79.0069539, -2.9173942, 2679.6], [-79.0068834, -2.9172973, 2683.4], [-79.00677, -2.917178, 2688.6], [-79.0067195, -2.9171269, 2690.0], [-79.0066385, -2.9170246, 2692.6], [-79.0065671, -2.9169624, 2697.0], [-79.0065452, -2.9169324, 2698.2], [-79.0065318, -2.9168729, 2694.8], [-79.0065239, -2.9167883, 2678.4], [-79.0065552, -2.9166452, 2653.0], [-79.0066121, -2.9165771, 2639.8], [-79.0066519, -2.916549, 2633.6], [-79.0067053, -2.9165574, 2630.6], [-79.0067407, -2.9165808, 2629.4], [-79.0067702, -2.9165747, 2627.6], [-79.0068343, -2.9165565, 2624.6], [-79.0068759, -2.916525, 2623.2], [-79.0069071, -2.9164864, 2622.0], [-79.0069397, -2.9164471, 2620.0], [-79.0069731, -2.9163958, 2618.4], [-79.007022, -2.9162955, 2615.4], [-79.0070372, -2.9162902, 2615.0], [-79.0070809, -2.9162767, 2614.8], [-79.0071197, -2.9162674, 2615.6], [-79.0071456, -2.9162691, 2616.0], [-79.0071561, -2.9162587, 2616.2], [-79.0072124, -2.9162208, 2616.4], [-79.0073274, -2.916137, 2615.6], [-79.0074314, -2.9160398, 2608.6], [-79.007451, -2.9160406, 2608.4], [-79.0075276, -2.9160199, 2608.2], [-79.0075959, -2.915994, 2609.2], [-79.0076123, -2.9159888, 2609.2], [-79.0077345, -2.9159495, 2608.4], [-79.0077859, -2.9159386, 2606.4], [-79.0078248, -2.9159119, 2603.4], [-79.0079563, -2.915848, 2600.2], [-79.0080725, -2.9158039, 2597.2], [-79.0081329, -2.9157654, 2596.8], [-79.0081899, -2.915715, 2596.4], [-79.0082635, -2.9156588, 2594.0], [-79.008286, -2.9156502, 2593.8], [-79.0083406, -2.9155956, 2593.4], [-79.0083478, -2.915591, 2593.0], [-79.0083551, -2.9155825, 2592.8], [-79.0083599, -2.9155819, 2592.8], [-79.0083659, -2.9155663, 2593.4], [-79.0083608, -2.9155552, 2593.6], [-79.0083602, -2.9155553, 2593.6], [-79.0083588, -2.9155539, 2594.2], [-79.0083581, -2.9155552, 2594.4], [-79.0083611, -2.9155573, 2595.0], [-79.008361, -2.9155602, 2595.4], [-79.0083603, -2.9155716, 2595.8], [-79.0083603, -2.9155769, 2596.0], [-79.0083603, -2.9155789, 2596.2], [-79.0083606, -2.9155811, 2596.4], [-79.0083624, -2.9155849, 2596.4], [-79.0083634, -2.9155776, 2596.0], [-79.0083633, -2.9155761, 2597.0], [-79.0083621, -2.9155364, 2597.0], [-79.0083621, -2.9155312, 2597.0], [-79.008362, -2.9155276, 2597.0], [-79.008361, -2.9155274, 2597.0], [-79.0083643, -2.9155256, 2596.8], [-79.0084111, -2.9154908, 2596.6], [-79.0085393, -2.9154258, 2596.0], [-79.0085525, -2.9154164, 2596.0], [-79.0085407, -2.9153789, 2595.4], [-79.0085043, -2.9153271, 2594.2], [-79.0085158, -2.915314, 2594.0], [-79.008535, -2.9153077, 2594.0], [-79.0085877, -2.9152746, 2594.4], [-79.0086514, -2.915236, 2595.2], [-79.0087469, -2.9151885, 2596.6], [-79.0088163, -2.9151643, 2597.8], [-79.0088353, -2.9151659, 2598.0], [-79.0089023, -2.9151397, 2598.2], [-79.0089671, -2.9151191, 2598.4], [-79.0090279, -2.9150709, 2598.4], [-79.0090782, -2.9150343, 2598.2], [-79.00916, -2.9149859, 2597.8], [-79.0092536, -2.9149363, 2596.8], [-79.0092653, -2.9149357, 2596.6], [-79.0092962, -2.9149258, 2596.4], [-79.0093331, -2.914908, 2596.2], [-79.0093782, -2.9148816, 2598.0], [-79.0093907, -2.914872, 2598.6], [-79.0094765, -2.914837, 2600.6], [-79.0095006, -2.9148336, 2600.6], [-79.0095579, -2.914796, 2600.2], [-79.0095949, -2.9147643, 2599.8], [-79.0096079, -2.9147581, 2599.6], [-79.0096449, -2.9147357, 2598.8], [-79.0097151, -2.9147015, 2598.0], [-79.0098671, -2.9146077, 2596.2], [-79.0099793, -2.9145605, 2596.6], [-79.0099923, -2.9145516, 2596.6], [-79.0100844, -2.9145121, 2594.2], [-79.0101854, -2.9144721, 2587.8], [-79.010212, -2.9144676, 2586.8], [-79.0102322, -2.9144636, 2586.2], [-79.0102405, -2.9144617, 2585.8], [-79.010325, -2.914405, 2586.0], [-79.0104211, -2.9143482, 2587.6], [-79.0105359, -2.9142939, 2586.0], [-79.0105748, -2.9142633, 2584.8], [-79.0107086, -2.9141806, 2584.6], [-79.0107175, -2.9141772, 2584.8], [-79.0107427, -2.9141621, 2585.0], [-79.0107503, -2.9141534, 2585.2], [-79.0107503, -2.9141528, 2586.0], [-79.0107503, -2.9141528, 2586.0], [-79.0107503, -2.9141528, 2586.2], [-79.0107537, -2.914151, 2586.2], [-79.0108069, -2.9141164, 2586.2], [-79.0109107, -2.9140374, 2584.4], [-79.0109877, -2.9140089, 2583.0], [-79.0110307, -2.9139986, 2582.8], [-79.0110421, -2.9139943, 2582.8], [-79.0111006, -2.9139507, 2583.2], [-79.011165, -2.9139202, 2584.0], [-79.0113296, -2.9138342, 2584.4], [-79.0113426, -2.9138284, 2584.4], [-79.0113669, -2.9138125, 2584.4], [-79.0114681, -2.9137753, 2584.0], [-79.0114863, -2.9137675, 2584.0], [-79.0115107, -2.913752, 2583.8], [-79.0115318, -2.9137464, 2584.0], [-79.0116034, -2.9137247, 2587.6], [-79.0116929, -2.9136964, 2586.2], [-79.0117859, -2.9136276, 2584.4], [-79.0119094, -2.9135646, 2585.6], [-79.011995, -2.9135388, 2588.6], [-79.012113, -2.9135126, 2593.8], [-79.0121825, -2.9134648, 2594.0], [-79.0122485, -2.9133937, 2592.4], [-79.0123335, -2.913297, 2588.0], [-79.0124863, -2.9132202, 2587.8], [-79.0125721, -2.9131875, 2591.4], [-79.0126667, -2.9131185, 2592.8], [-79.0128156, -2.9130469, 2585.8], [-79.0129253, -2.9130008, 2583.0], [-79.0129359, -2.9129954, 2581.4], [-79.0129877, -2.9129698, 2580.4], [-79.0129955, -2.9129633, 2579.6], [-79.0129909, -2.9129598, 2579.6], [-79.0129793, -2.9129438, 2579.6], [-79.0129328, -2.9128771, 2579.6], [-79.0129354, -2.9128525, 2579.8], [-79.0129643, -2.9128232, 2578.8], [-79.0129851, -2.9128157, 2578.6], [-79.0130205, -2.9127958, 2578.4], [-79.0131063, -2.9127971, 2577.6], [-79.0131193, -2.912809, 2577.4], [-79.0132095, -2.9128438, 2577.2], [-79.013261, -2.9128286, 2578.0], [-79.0133125, -2.912802, 2578.6], [-79.0134546, -2.9127307, 2577.8], [-79.0135446, -2.9126772, 2576.0], [-79.0135725, -2.9126572, 2575.4], [-79.0137256, -2.9125917, 2574.8], [-79.0137905, -2.9125699, 2578.0], [-79.0138191, -2.9125601, 2579.6], [-79.013915, -2.9125117, 2582.4], [-79.0140826, -2.9124239, 2582.4], [-79.0141221, -2.9124005, 2582.6], [-79.0142056, -2.9123464, 2582.6], [-79.0142485, -2.9123374, 2583.2], [-79.0143725, -2.9122848, 2585.2], [-79.0144905, -2.9122357, 2586.4], [-79.014655, -2.9121396, 2587.2], [-79.0147451, -2.9120727, 2585.4], [-79.014763, -2.9120674, 2584.8], [-79.0148993, -2.9119939, 2579.6], [-79.0150655, -2.9118961, 2577.8], [-79.0150788, -2.9118894, 2577.6], [-79.0151132, -2.9118716, 2577.0], [-79.0151152, -2.9118685, 2576.6], [-79.0151151, -2.9118685, 2576.6], [-79.0151151, -2.9118684, 2576.6], [-79.0151324, -2.9118605, 2576.8], [-79.0151623, -2.9118443, 2577.0], [-79.0151775, -2.9118351, 2577.0], [-79.015232, -2.9117974, 2577.6], [-79.0153264, -2.9117429, 2578.2], [-79.0154583, -2.9116745, 2581.6], [-79.015585, -2.9116448, 2583.8], [-79.0156156, -2.9116322, 2583.8], [-79.0157156, -2.9115853, 2585.6], [-79.0158264, -2.9115391, 2588.0], [-79.0159067, -2.9115135, 2591.0], [-79.0160354, -2.911432, 2592.6], [-79.016174, -2.9113517, 2590.4], [-79.0161861, -2.9113436, 2590.0], [-79.0162835, -2.9112958, 2590.4], [-79.0164086, -2.9112366, 2592.2], [-79.0165405, -2.9111589, 2586.6], [-79.0166893, -2.9110481, 2580.8], [-79.0167927, -2.9110011, 2579.0], [-79.0168622, -2.9109777, 2578.8], [-79.0169213, -2.9109646, 2579.2], [-79.0169777, -2.9109455, 2579.4], [-79.0169884, -2.9109549, 2579.6], [-79.0170163, -2.910962, 2579.8], [-79.017041, -2.9109728, 2580.0], [-79.0171305, -2.9109766, 2580.2], [-79.0171419, -2.910972, 2580.0], [-79.0172335, -2.9109038, 2579.4], [-79.0173169, -2.9108684, 2578.2], [-79.0173294, -2.9108631, 2578.2], [-79.0174048, -2.91083, 2577.8], [-79.0174079, -2.9108288, 2577.8], [-79.0174648, -2.9108013, 2577.2], [-79.0175741, -2.9107263, 2575.8], [-79.0177308, -2.910655, 2573.6], [-79.0177449, -2.9106497, 2573.6], [-79.0179191, -2.9105751, 2573.2], [-79.0180679, -2.9105162, 2572.2], [-79.0181163, -2.9105075, 2572.2], [-79.0182258, -2.9104736, 2572.4], [-79.0183725, -2.9104218, 2573.0], [-79.0185506, -2.9103913, 2573.0], [-79.0185801, -2.9103856, 2572.8], [-79.0185947, -2.9103707, 2572.8], [-79.0186369, -2.9103537, 2572.4], [-79.0187444, -2.9103491, 2571.8], [-79.0187811, -2.9103418, 2572.2], [-79.0188044, -2.9103419, 2572.2], [-79.0188295, -2.9103482, 2572.8], [-79.0188744, -2.9103381, 2573.2], [-79.0189742, -2.9103626, 2572.6], [-79.0190012, -2.91038, 2572.8], [-79.0190458, -2.9103936, 2573.6], [-79.0191318, -2.9104514, 2575.8], [-79.0192529, -2.9104986, 2577.4], [-79.0193239, -2.9105517, 2582.4], [-79.0193188, -2.9105513, 2582.8], [-79.0192664, -2.9105434, 2583.2], [-79.0192209, -2.9105256, 2582.2], [-79.019194, -2.9105205, 2581.6], [-79.0191948, -2.9105342, 2580.8], [-79.0192937, -2.9105815, 2580.0], [-79.0193085, -2.9105839, 2580.6], [-79.0194104, -2.9106055, 2584.4], [-79.019477, -2.9106167, 2585.4], [-79.0196535, -2.9106152, 2584.6], [-79.0196951, -2.9105821, 2584.2], [-79.0197264, -2.9105513, 2584.2], [-79.0197658, -2.9105291, 2584.0], [-79.0198311, -2.910495, 2584.0], [-79.0198992, -2.910442, 2583.8], [-79.0199102, -2.9104362, 2583.4], [-79.0200492, -2.9103567, 2581.6], [-79.0201274, -2.9103086, 2580.4], [-79.0202059, -2.9102611, 2578.4], [-79.0202725, -2.910235, 2577.0], [-79.0202984, -2.910242, 2576.6], [-79.0203078, -2.9102503, 2576.6], [-79.0203247, -2.9102914, 2576.2], [-79.0203345, -2.9103381, 2575.4], [-79.0203403, -2.9103506, 2575.2], [-79.0203495, -2.9103549, 2574.8], [-79.0203571, -2.9103349, 2574.0], [-79.0203568, -2.9103038, 2573.6], [-79.0203549, -2.9102735, 2573.4], [-79.0203219, -2.9101616, 2573.8], [-79.0202948, -2.9100804, 2573.2], [-79.0202731, -2.9100548, 2572.8], [-79.0201742, -2.9100343, 2571.0], [-79.0200469, -2.9100457, 2569.4], [-79.0200203, -2.9100357, 2569.6], [-79.0199822, -2.9099905, 2570.2], [-79.0199555, -2.9099526, 2570.6], [-79.0198772, -2.9098132, 2571.8], [-79.0197499, -2.9096825, 2571.8], [-79.0196118, -2.9096214, 2572.6], [-79.019511, -2.9096146, 2573.0], [-79.0193458, -2.909617, 2572.6], [-79.0192391, -2.9095892, 2571.0], [-79.0191945, -2.9095301, 2569.8], [-79.0191941, -2.9095111, 2569.6], [-79.0192271, -2.9094089, 2569.8], [-79.0192267, -2.9093749, 2570.4], [-79.0191835, -2.9093177, 2570.8], [-79.0191807, -2.9093105, 2570.8], [-79.0192138, -2.9093396, 2572.2], [-79.0192273, -2.9093519, 2572.2], [-79.0192075, -2.9093807, 2572.6], [-79.0192044, -2.9093603, 2572.6], [-79.0192043, -2.9093548, 2572.6], [-79.0191955, -2.9093819, 2572.6], [-79.0191577, -2.9093245, 2573.0]]}}]}